{"type": "FeatureCollection", "features": [{"type": "Feature", "geometry": {"type": "Point", "coordinates": [-95.1, 29.7]}, "properties": {"key": "houston", "name": "Houston, USA", "n_service": 20, "is_houston": true}}, {"type": "Feature", "geometry": {"type": "Point", "coordinates": [-78.7, 26.53]}, "properties": {"key": "freeport_bahama", "name": "Freeport, Grand Bahama", "n_service": 7, "is_houston": false}}, {"type": "Feature", "geometry": {"type": "Point", "coordinates": [-81.11, 32.08]}, "properties": {"key": "savannah", "name": "Savannah, USA", "n_service": 3, "is_houston": false}}, {"type": "Feature", "geometry": {"type": "Point", "coordinates": [-96.14, 19.19]}, "properties": {"key": "veracruz", "name": "Veracruz, MX", "n_service": 9, "is_houston": false}}, {"type": "Feature", "geometry": {"type": "Point", "coordinates": [-79.9, 9.35]}, "properties": {"key": "cristobal", "name": "Cristobal, PA", "n_service": 4, "is_houston": false}}, {"type": "Feature", "geometry": {"type": "Point", "coordinates": [54.64, 24.8]}, "properties": {"key": "abu_dhabi", "name": "Abu Dhabi (Khalifa), UAE", "n_service": 1, "is_houston": false}}, {"type": "Feature", "geometry": {"type": "Point", "coordinates": [55.06, 25.01]}, "properties": {"key": "jebel_ali", "name": "Jebel Ali, UAE", "n_service": 2, "is_houston": false}}, {"type": "Feature", "geometry": {"type": "Point", "coordinates": [69.7, 22.74]}, "properties": {"key": "mundra", "name": "Mundra, IN", "n_service": 2, "is_houston": false}}, {"type": "Feature", "geometry": {"type": "Point", "coordinates": [72.95, 18.95]}, "properties": {"key": "nhava_sheva", "name": "Nhava Sheva (JNPT), IN", "n_service": 2, "is_houston": false}}, {"type": "Feature", "geometry": {"type": "Point", "coordinates": [79.84, 6.94]}, "properties": {"key": "colombo", "name": "Colombo, LK", "n_service": 1, "is_houston": false}}, {"type": "Feature", "geometry": {"type": "Point", "coordinates": [76.99, 8.36]}, "properties": {"key": "vizhinjam", "name": "Vizhinjam / Trivandrum, IN", "n_service": 1, "is_houston": false}}, {"type": "Feature", "geometry": {"type": "Point", "coordinates": [-74.15, 40.68]}, "properties": {"key": "newark", "name": "New York / Newark, USA", "n_service": 1, "is_houston": false}}, {"type": "Feature", "geometry": {"type": "Point", "coordinates": [-5.44, 36.13]}, "properties": {"key": "algeciras", "name": "Algeciras, ES", "n_service": 1, "is_houston": false}}, {"type": "Feature", "geometry": {"type": "Point", "coordinates": [32.3, 31.25]}, "properties": {"key": "port_said", "name": "Port Said, EG", "n_service": 1, "is_houston": false}}, {"type": "Feature", "geometry": {"type": "Point", "coordinates": [43.14, 11.6]}, "properties": {"key": "djibouti", "name": "Djibouti, DJ", "n_service": 1, "is_houston": false}}, {"type": "Feature", "geometry": {"type": "Point", "coordinates": [54.01, 16.95]}, "properties": {"key": "salalah", "name": "Salalah, OM", "n_service": 1, "is_houston": false}}, {"type": "Feature", "geometry": {"type": "Point", "coordinates": [67.34, 24.76]}, "properties": {"key": "port_qasim", "name": "Port Qasim / Karachi, PK", "n_service": 2, "is_houston": false}}, {"type": "Feature", "geometry": {"type": "Point", "coordinates": [71.51, 20.92]}, "properties": {"key": "pipavav", "name": "Pipavav, IN", "n_service": 1, "is_houston": false}}, {"type": "Feature", "geometry": {"type": "Point", "coordinates": [39.18, 21.49]}, "properties": {"key": "jeddah", "name": "Jeddah, SA", "n_service": 2, "is_houston": false}}, {"type": "Feature", "geometry": {"type": "Point", "coordinates": [-5.51, 35.88]}, "properties": {"key": "tanger_med", "name": "Tanger Med, MA", "n_service": 3, "is_houston": false}}, {"type": "Feature", "geometry": {"type": "Point", "coordinates": [8.93, 44.41]}, "properties": {"key": "genoa", "name": "Genoa, IT", "n_service": 2, "is_houston": false}}, {"type": "Feature", "geometry": {"type": "Point", "coordinates": [1.24, 41.1]}, "properties": {"key": "tarragona", "name": "Tarragona, ES", "n_service": 1, "is_houston": false}}, {"type": "Feature", "geometry": {"type": "Point", "coordinates": [-0.32, 39.44]}, "properties": {"key": "valencia", "name": "Valencia, ES", "n_service": 2, "is_houston": false}}, {"type": "Feature", "geometry": {"type": "Point", "coordinates": [-97.87, 22.5]}, "properties": {"key": "altamira", "name": "Altamira, MX", "n_service": 8, "is_houston": false}}, {"type": "Feature", "geometry": {"type": "Point", "coordinates": [2.16, 41.35]}, "properties": {"key": "barcelona", "name": "Barcelona, ES", "n_service": 3, "is_houston": false}}, {"type": "Feature", "geometry": {"type": "Point", "coordinates": [-90.06, 29.94]}, "properties": {"key": "new_orleans", "name": "New Orleans, USA", "n_service": 9, "is_houston": false}}, {"type": "Feature", "geometry": {"type": "Point", "coordinates": [-15.41, 28.14]}, "properties": {"key": "las_palmas", "name": "Las Palmas, ES", "n_service": 1, "is_houston": false}}, {"type": "Feature", "geometry": {"type": "Point", "coordinates": [15.9, 38.43]}, "properties": {"key": "gioia_tauro", "name": "Gioia Tauro, IT", "n_service": 1, "is_houston": false}}, {"type": "Feature", "geometry": {"type": "Point", "coordinates": [14.25, 40.84]}, "properties": {"key": "napoli", "name": "Napoli, IT", "n_service": 1, "is_houston": false}}, {"type": "Feature", "geometry": {"type": "Point", "coordinates": [10.29, 43.55]}, "properties": {"key": "livorno", "name": "Livorno, IT", "n_service": 1, "is_houston": false}}, {"type": "Feature", "geometry": {"type": "Point", "coordinates": [-8.87, 37.95]}, "properties": {"key": "sines", "name": "Sines, PT", "n_service": 1, "is_houston": false}}, {"type": "Feature", "geometry": {"type": "Point", "coordinates": [-80.19, 25.77]}, "properties": {"key": "miami", "name": "Miami, USA", "n_service": 4, "is_houston": false}}, {"type": "Feature", "geometry": {"type": "Point", "coordinates": [-48.66, -26.9]}, "properties": {"key": "itajai", "name": "Itajai, BR", "n_service": 2, "is_houston": false}}, {"type": "Feature", "geometry": {"type": "Point", "coordinates": [-58.44, -3.14]}, "properties": {"key": "itacoatiara", "name": "Itacoatiara, BR", "n_service": 1, "is_houston": false}}, {"type": "Feature", "geometry": {"type": "Point", "coordinates": [-43.19, -22.9]}, "properties": {"key": "rio_de_janeiro", "name": "Rio de Janeiro, BR", "n_service": 4, "is_houston": false}}, {"type": "Feature", "geometry": {"type": "Point", "coordinates": [-60.02, -3.13]}, "properties": {"key": "manaus", "name": "Manaus, BR", "n_service": 1, "is_houston": false}}, {"type": "Feature", "geometry": {"type": "Point", "coordinates": [-51.05, 0.03]}, "properties": {"key": "macapa", "name": "Macapa, BR", "n_service": 1, "is_houston": false}}, {"type": "Feature", "geometry": {"type": "Point", "coordinates": [-48.51, -25.5]}, "properties": {"key": "paranagua", "name": "Paranagua, BR", "n_service": 4, "is_houston": false}}, {"type": "Feature", "geometry": {"type": "Point", "coordinates": [-38.51, -12.97]}, "properties": {"key": "salvador", "name": "Salvador, BR", "n_service": 2, "is_houston": false}}, {"type": "Feature", "geometry": {"type": "Point", "coordinates": [-46.3, -23.96]}, "properties": {"key": "santos", "name": "Santos, BR", "n_service": 4, "is_houston": false}}, {"type": "Feature", "geometry": {"type": "Point", "coordinates": [-40.34, -20.32]}, "properties": {"key": "vitoria", "name": "Vitoria, BR", "n_service": 2, "is_houston": false}}, {"type": "Feature", "geometry": {"type": "Point", "coordinates": [-75.51, 10.4]}, "properties": {"key": "cartagena", "name": "Cartagena, CO", "n_service": 7, "is_houston": false}}, {"type": "Feature", "geometry": {"type": "Point", "coordinates": [-76.79, 17.97]}, "properties": {"key": "kingston", "name": "Kingston, JM", "n_service": 4, "is_houston": false}}, {"type": "Feature", "geometry": {"type": "Point", "coordinates": [-79.82, 9.36]}, "properties": {"key": "manzanillo_pa", "name": "Manzanillo (Colon), PA", "n_service": 2, "is_houston": false}}, {"type": "Feature", "geometry": {"type": "Point", "coordinates": [-43.83, -22.94]}, "properties": {"key": "itaguai", "name": "Itaguai (Sepetiba), BR", "n_service": 1, "is_houston": false}}, {"type": "Feature", "geometry": {"type": "Point", "coordinates": [-37.61, -11.81]}, "properties": {"key": "conde", "name": "Conde, BR", "n_service": 1, "is_houston": false}}, {"type": "Feature", "geometry": {"type": "Point", "coordinates": [-48.65, -26.9]}, "properties": {"key": "navegantes", "name": "Navegantes, BR", "n_service": 3, "is_houston": false}}, {"type": "Feature", "geometry": {"type": "Point", "coordinates": [-48.67, -28.24]}, "properties": {"key": "imbituba", "name": "Imbituba, BR", "n_service": 2, "is_houston": false}}, {"type": "Feature", "geometry": {"type": "Point", "coordinates": [-69.63, 18.42]}, "properties": {"key": "caucedo", "name": "Caucedo, DO", "n_service": 2, "is_houston": false}}, {"type": "Feature", "geometry": {"type": "Point", "coordinates": [-58.37, -34.6]}, "properties": {"key": "buenos_aires", "name": "Buenos Aires, AR", "n_service": 3, "is_houston": false}}, {"type": "Feature", "geometry": {"type": "Point", "coordinates": [-34.95, -8.39]}, "properties": {"key": "suape", "name": "Suape, BR", "n_service": 2, "is_houston": false}}, {"type": "Feature", "geometry": {"type": "Point", "coordinates": [-56.19, -34.9]}, "properties": {"key": "montevideo", "name": "Montevideo, UY", "n_service": 3, "is_houston": false}}, {"type": "Feature", "geometry": {"type": "Point", "coordinates": [-48.62, -26.11]}, "properties": {"key": "itapoa", "name": "Itapoa, BR", "n_service": 2, "is_houston": false}}, {"type": "Feature", "geometry": {"type": "Point", "coordinates": [-52.1, -32.04]}, "properties": {"key": "rio_grande", "name": "Rio Grande, BR", "n_service": 1, "is_houston": false}}, {"type": "Feature", "geometry": {"type": "Point", "coordinates": [-79.57, 8.95]}, "properties": {"key": "balboa", "name": "Balboa, PA", "n_service": 3, "is_houston": false}}, {"type": "Feature", "geometry": {"type": "Point", "coordinates": [-68.01, 10.47]}, "properties": {"key": "puerto_cabello", "name": "Puerto Cabello, VE", "n_service": 1, "is_houston": false}}, {"type": "Feature", "geometry": {"type": "Point", "coordinates": [-89.66, 21.3]}, "properties": {"key": "progreso", "name": "Progreso, MX", "n_service": 1, "is_houston": false}}, {"type": "Feature", "geometry": {"type": "Point", "coordinates": [-85.67, 30.15]}, "properties": {"key": "panama_city_fl", "name": "Panama City, FL, USA", "n_service": 1, "is_houston": false}}, {"type": "Feature", "geometry": {"type": "Point", "coordinates": [-88.6, 15.73]}, "properties": {"key": "puerto_barrios", "name": "Puerto Barrios, GT", "n_service": 2, "is_houston": false}}, {"type": "Feature", "geometry": {"type": "Point", "coordinates": [-87.95, 15.83]}, "properties": {"key": "puerto_cortes", "name": "Puerto Cortes, HN", "n_service": 2, "is_houston": false}}, {"type": "Feature", "geometry": {"type": "Point", "coordinates": [-88.61, 15.69]}, "properties": {"key": "santo_tomas", "name": "Santo Tomas de Castilla, GT", "n_service": 1, "is_houston": false}}, {"type": "Feature", "geometry": {"type": "Point", "coordinates": [-74.8, 11.0]}, "properties": {"key": "barranquilla", "name": "Barranquilla, CO", "n_service": 1, "is_houston": false}}, {"type": "Feature", "geometry": {"type": "Point", "coordinates": [-88.04, 30.69]}, "properties": {"key": "mobile", "name": "Mobile, USA", "n_service": 7, "is_houston": false}}, {"type": "Feature", "geometry": {"type": "Point", "coordinates": [4.4, 51.26]}, "properties": {"key": "antwerpen", "name": "Antwerp, BE", "n_service": 3, "is_houston": false}}, {"type": "Feature", "geometry": {"type": "Point", "coordinates": [4.14, 51.95]}, "properties": {"key": "rotterdam", "name": "Rotterdam, NL", "n_service": 3, "is_houston": false}}, {"type": "Feature", "geometry": {"type": "Point", "coordinates": [8.57, 53.55]}, "properties": {"key": "bremerhaven", "name": "Bremerhaven, DE", "n_service": 3, "is_houston": false}}, {"type": "Feature", "geometry": {"type": "Point", "coordinates": [-76.3, 36.85]}, "properties": {"key": "norfolk", "name": "Norfolk, USA", "n_service": 1, "is_houston": false}}, {"type": "Feature", "geometry": {"type": "Point", "coordinates": [1.35, 51.96]}, "properties": {"key": "felixstowe", "name": "Felixstowe, GB", "n_service": 1, "is_houston": false}}, {"type": "Feature", "geometry": {"type": "Point", "coordinates": [0.12, 49.48]}, "properties": {"key": "le_havre", "name": "Le Havre, FR", "n_service": 2, "is_houston": false}}, {"type": "Feature", "geometry": {"type": "Point", "coordinates": [24.14, 65.85]}, "properties": {"key": "tornio", "name": "Tornio, FI", "n_service": 1, "is_houston": false}}, {"type": "Feature", "geometry": {"type": "Point", "coordinates": [-79.92, 32.78]}, "properties": {"key": "charleston", "name": "Charleston, USA", "n_service": 1, "is_houston": false}}, {"type": "Feature", "geometry": {"type": "Point", "coordinates": [-1.4, 50.9]}, "properties": {"key": "southampton", "name": "Southampton, GB", "n_service": 2, "is_houston": false}}, {"type": "Feature", "geometry": {"type": "Point", "coordinates": [3.21, 51.33]}, "properties": {"key": "zeebrugge", "name": "Zeebrugge, BE", "n_service": 2, "is_houston": false}}, {"type": "Feature", "geometry": {"type": "Point", "coordinates": [-82.45, 27.92]}, "properties": {"key": "tampa", "name": "Tampa, USA", "n_service": 3, "is_houston": false}}, {"type": "Feature", "geometry": {"type": "Point", "coordinates": [121.49, 31.23]}, "properties": {"key": "shanghai", "name": "Shanghai, CN", "n_service": 5, "is_houston": false}}, {"type": "Feature", "geometry": {"type": "Point", "coordinates": [121.55, 29.87]}, "properties": {"key": "ningbo", "name": "Ningbo, CN", "n_service": 5, "is_houston": false}}, {"type": "Feature", "geometry": {"type": "Point", "coordinates": [118.09, 24.48]}, "properties": {"key": "xiamen", "name": "Xiamen, CN", "n_service": 1, "is_houston": false}}, {"type": "Feature", "geometry": {"type": "Point", "coordinates": [114.27, 22.56]}, "properties": {"key": "yantian", "name": "Yantian (Shenzhen), CN", "n_service": 5, "is_houston": false}}, {"type": "Feature", "geometry": {"type": "Point", "coordinates": [120.28, 22.61]}, "properties": {"key": "kaohsiung", "name": "Kaohsiung, TW", "n_service": 2, "is_houston": false}}, {"type": "Feature", "geometry": {"type": "Point", "coordinates": [114.17, 22.3]}, "properties": {"key": "hong_kong", "name": "Hong Kong", "n_service": 2, "is_houston": false}}, {"type": "Feature", "geometry": {"type": "Point", "coordinates": [129.04, 35.1]}, "properties": {"key": "pusan", "name": "Busan (Pusan), KR", "n_service": 4, "is_houston": false}}, {"type": "Feature", "geometry": {"type": "Point", "coordinates": [-79.58, 8.94]}, "properties": {"key": "rodman", "name": "Rodman, PA", "n_service": 2, "is_houston": false}}, {"type": "Feature", "geometry": {"type": "Point", "coordinates": [103.82, 1.26]}, "properties": {"key": "singapore", "name": "Singapore", "n_service": 3, "is_houston": false}}, {"type": "Feature", "geometry": {"type": "Point", "coordinates": [107.08, 10.35]}, "properties": {"key": "vung_tau", "name": "Vung Tau, VN", "n_service": 2, "is_houston": false}}, {"type": "Feature", "geometry": {"type": "Point", "coordinates": [113.9, 22.48]}, "properties": {"key": "shekou", "name": "Shekou (Shenzhen), CN", "n_service": 1, "is_houston": false}}, {"type": "Feature", "geometry": {"type": "Point", "coordinates": [106.88, -6.1]}, "properties": {"key": "jakarta", "name": "Jakarta (Tanjung Priok), ID", "n_service": 1, "is_houston": false}}, {"type": "Feature", "geometry": {"type": "Point", "coordinates": [120.32, 36.07]}, "properties": {"key": "qingdao", "name": "Qingdao, CN", "n_service": 1, "is_houston": false}}, {"type": "Feature", "geometry": {"type": "Point", "coordinates": [-79.52, 8.98]}, "properties": {"key": "panama_city", "name": "Panama City, PA", "n_service": 1, "is_houston": false}}, {"type": "Feature", "geometry": {"type": "Point", "coordinates": [122.07, 30.63]}, "properties": {"key": "yangshan", "name": "Yangshan (Shanghai), CN", "n_service": 1, "is_houston": false}}, {"type": "Feature", "geometry": {"type": "Point", "coordinates": [-102.17, 17.96]}, "properties": {"key": "lazaro_cardenas", "name": "Lazaro Cardenas, MX", "n_service": 1, "is_houston": false}}]}